[{"OBJECT_NAME":"ONEWEB-0683","OBJECT_ID":"2023-068K","EPOCH":"2026-02-17T00:53:11.721408","MEAN_MOTION":13.15549166,"ECCENTRICITY":0.0001846,"INCLINATION":87.8978,"RA_OF_ASC_NODE":283.1758,"ARG_OF_PERICENTER":87.622,"MEAN_ANOMALY":272.5122,"EPHEMERIS_TYPE":0,"CLASSIFICATION_TYPE":"U","NORAD_CAT_ID":56719,"ELEMENT_SET_NO":999,"REV_AT_EPOCH":13362,"BSTAR":0.00012706,"MEAN_MOTION_DOT":6.1e-7,"MEAN_MOTION_DDOT":0},{"OBJECT_NAME":"ONEWEB-0684","OBJECT_ID":"2023-068L","EPOCH":"2026-02-17T02:54:07.409376","MEAN_MOTION":13.15549223,"ECCENTRICITY":0.0001701,"INCLINATION":87.8974,"RA_OF_ASC_NODE":283.1525,"ARG_OF_PERICENTER":136.3032,"MEAN_ANOMALY":223.8233,"EPHEMERIS_TYPE":0,"CLASSIFICATION_TYPE":"U","NORAD_CAT_ID":56720,"ELEMENT_SET_NO":999,"REV_AT_EPOCH":13346,"BSTAR":0.00014016,"MEAN_MOTION_DOT":6.6e-7,"MEAN_MOTION_DDOT":0},{"OBJECT_NAME":"ONEWEB-0686","OBJECT_ID":"2023-068M","EPOCH":"2026-02-17T03:05:36.955680","MEAN_MOTION":13.16592458,"ECCENTRICITY":0.0001883,"INCLINATION":87.899,"RA_OF_ASC_NODE":252.6969,"ARG_OF_PERICENTER":100.1431,"MEAN_ANOMALY":259.9912,"EPHEMERIS_TYPE":0,"CLASSIFICATION_TYPE":"U","NORAD_CAT_ID":56721,"ELEMENT_SET_NO":999,"REV_AT_EPOCH":13591,"BSTAR":0.00017387,"MEAN_MOTION_DOT":7.9e-7,"MEAN_MOTION_DDOT":0},{"OBJECT_NAME":"ONEWEB-0694","OBJECT_ID":"2023-068N","EPOCH":"2026-02-17T01:25:16.584672","MEAN_MOTION":13.16593853,"ECCENTRICITY":0.0002026,"INCLINATION":87.9008,"RA_OF_ASC_NODE":252.6527,"ARG_OF_PERICENTER":87.9865,"MEAN_ANOMALY":272.1497,"EPHEMERIS_TYPE":0,"CLASSIFICATION_TYPE":"U","NORAD_CAT_ID":56722,"ELEMENT_SET_NO":999,"REV_AT_EPOCH":13596,"BSTAR":-0.00074936,"MEAN_MOTION_DOT":-2.74e-6,"MEAN_MOTION_DDOT":0},{"OBJECT_NAME":"ONEWEB-0696","OBJECT_ID":"2023-068P","EPOCH":"2026-02-17T03:42:02.423808","MEAN_MOTION":13.15547442,"ECCENTRICITY":0.0001248,"INCLINATION":87.8962,"RA_OF_ASC_NODE":283.1931,"ARG_OF_PERICENTER":98.3288,"MEAN_ANOMALY":261.7983,"EPHEMERIS_TYPE":0,"CLASSIFICATION_TYPE":"U","NORAD_CAT_ID":56723,"ELEMENT_SET_NO":999,"REV_AT_EPOCH":13358,"BSTAR":0.00022307,"MEAN_MOTION_DOT":9.7e-7,"MEAN_MOTION_DDOT":0},{"OBJECT_NAME":"ONEWEB-0703","OBJECT_ID":"2023-068Q","EPOCH":"2026-02-17T03:55:43.780224","MEAN_MOTION":13.15549929,"ECCENTRICITY":5.66e-5,"INCLINATION":87.8961,"RA_OF_ASC_NODE":283.1723,"ARG_OF_PERICENTER":97.7903,"MEAN_ANOMALY":262.3292,"EPHEMERIS_TYPE":0,"CLASSIFICATION_TYPE":"U","NORAD_CAT_ID":56724,"ELEMENT_SET_NO":999,"REV_AT_EPOCH":13347,"BSTAR":0.00052862,"MEAN_MOTION_DOT":2.12e-6,"MEAN_MOTION_DDOT":0},{"OBJECT_NAME":"ONEWEB-0721","OBJECT_ID":"2023-068R","EPOCH":"2026-02-17T03:27:27.756000","MEAN_MOTION":13.22459839,"ECCENTRICITY":0.0001854,"INCLINATION":86.6795,"RA_OF_ASC_NODE":123.8407,"ARG_OF_PERICENTER":105.2961,"MEAN_ANOMALY":254.8377,"EPHEMERIS_TYPE":0,"CLASSIFICATION_TYPE":"U","NORAD_CAT_ID":56725,"ELEMENT_SET_NO":999,"REV_AT_EPOCH":14207,"BSTAR":0.00032547,"MEAN_MOTION_DOT":1.5e-6,"MEAN_MOTION_DDOT":0},{"OBJECT_NAME":"ONEWEB-0015","OBJECT_ID":"2024-188A","EPOCH":"2026-02-16T23:44:49.668000","MEAN_MOTION":13.11415155,"ECCENTRICITY":0.0001959,"INCLINATION":87.8822,"RA_OF_ASC_NODE":45.0052,"ARG_OF_PERICENTER":69.8227,"MEAN_ANOMALY":290.3112,"EPHEMERIS_TYPE":0,"CLASSIFICATION_TYPE":"U","NORAD_CAT_ID":61594,"ELEMENT_SET_NO":999,"REV_AT_EPOCH":6870,"BSTAR":0.00094524,"MEAN_MOTION_DOT":3.48e-6,"MEAN_MOTION_DDOT":0},{"OBJECT_NAME":"ONEWEB-0687","OBJECT_ID":"2024-188B","EPOCH":"2026-02-17T00:34:18.500736","MEAN_MOTION":13.17648968,"ECCENTRICITY":0.0002344,"INCLINATION":87.9103,"RA_OF_ASC_NODE":29.755,"ARG_OF_PERICENTER":77.0385,"MEAN_ANOMALY":283.1009,"EPHEMERIS_TYPE":0,"CLASSIFICATION_TYPE":"U","NORAD_CAT_ID":61595,"ELEMENT_SET_NO":999,"REV_AT_EPOCH":7007,"BSTAR":8.0331e-6,"MEAN_MOTION_DOT":1.6e-7,"MEAN_MOTION_DDOT":0},{"OBJECT_NAME":"ONEWEB-0688","OBJECT_ID":"2024-188C","EPOCH":"2026-02-16T23:26:16.523232","MEAN_MOTION":13.17648668,"ECCENTRICITY":0.0002303,"INCLINATION":87.91,"RA_OF_ASC_NODE":29.7632,"ARG_OF_PERICENTER":50.7461,"MEAN_ANOMALY":309.3875,"EPHEMERIS_TYPE":0,"CLASSIFICATION_TYPE":"U","NORAD_CAT_ID":61596,"ELEMENT_SET_NO":999,"REV_AT_EPOCH":7006,"BSTAR":1.1717e-5,"MEAN_MOTION_DOT":1.7e-7,"MEAN_MOTION_DDOT":0},{"OBJECT_NAME":"ONEWEB-0689","OBJECT_ID":"2024-188D","EPOCH":"2026-02-17T00:33:38.288448","MEAN_MOTION":13.1141877,"ECCENTRICITY":0.0002223,"INCLINATION":87.8838,"RA_OF_ASC_NODE":44.9363,"ARG_OF_PERICENTER":86.5147,"MEAN_ANOMALY":273.6235,"EPHEMERIS_TYPE":0,"CLASSIFICATION_TYPE":"U","NORAD_CAT_ID":61597,"ELEMENT_SET_NO":999,"REV_AT_EPOCH":6870,"BSTAR":-0.0012278,"MEAN_MOTION_DOT":-4.22e-6,"MEAN_MOTION_DDOT":0},{"OBJECT_NAME":"ONEWEB-0690","OBJECT_ID":"2024-188E","EPOCH":"2026-02-17T00:48:17.588160","MEAN_MOTION":13.11419568,"ECCENTRICITY":0.0001178,"INCLINATION":87.8841,"RA_OF_ASC_NODE":44.9541,"ARG_OF_PERICENTER":95.8554,"MEAN_ANOMALY":264.2708,"EPHEMERIS_TYPE":0,"CLASSIFICATION_TYPE":"U","NORAD_CAT_ID":61598,"ELEMENT_SET_NO":999,"REV_AT_EPOCH":6888,"BSTAR":-0.0001953,"MEAN_MOTION_DOT":-5.7e-7,"MEAN_MOTION_DDOT":0},{"OBJECT_NAME":"ONEWEB-0691","OBJECT_ID":"2024-188F","EPOCH":"2026-02-17T00:40:58.027296","MEAN_MOTION":13.11419793,"ECCENTRICITY":0.0002017,"INCLINATION":87.8844,"RA_OF_ASC_NODE":44.8547,"ARG_OF_PERICENTER":73.6099,"MEAN_ANOMALY":286.525,"EPHEMERIS_TYPE":0,"CLASSIFICATION_TYPE":"U","NORAD_CAT_ID":61599,"ELEMENT_SET_NO":999,"REV_AT_EPOCH":6873,"BSTAR":-0.00072878,"MEAN_MOTION_DOT":-2.46e-6,"MEAN_MOTION_DDOT":0},{"OBJECT_NAME":"ONEWEB-0692","OBJECT_ID":"2024-188G","EPOCH":"2026-02-16T23:20:24.724896","MEAN_MOTION":13.11418333,"ECCENTRICITY":0.0002427,"INCLINATION":87.883,"RA_OF_ASC_NODE":45.0014,"ARG_OF_PERICENTER":106.7476,"MEAN_ANOMALY":253.3919,"EPHEMERIS_TYPE":0,"CLASSIFICATION_TYPE":"U","NORAD_CAT_ID":61600,"ELEMENT_SET_NO":999,"REV_AT_EPOCH":6871,"BSTAR":0.0016767,"MEAN_MOTION_DOT":6.07e-6,"MEAN_MOTION_DDOT":0},{"OBJECT_NAME":"ONEWEB-0693","OBJECT_ID":"2024-188H","EPOCH":"2026-02-16T23:43:17.308128","MEAN_MOTION":13.17649602,"ECCENTRICITY":0.0001073,"INCLINATION":87.91,"RA_OF_ASC_NODE":29.7823,"ARG_OF_PERICENTER":82.7291,"MEAN_ANOMALY":277.3963,"EPHEMERIS_TYPE":0,"CLASSIFICATION_TYPE":"U","NORAD_CAT_ID":61601,"ELEMENT_SET_NO":999,"REV_AT_EPOCH":7005,"BSTAR":2.6213e-5,"MEAN_MOTION_DOT":2.3e-7,"MEAN_MOTION_DDOT":0},{"OBJECT_NAME":"ONEWEB-0695","OBJECT_ID":"2024-188J","EPOCH":"2026-02-17T00:36:05.971968","MEAN_MOTION":13.11417046,"ECCENTRICITY":0.0002384,"INCLINATION":87.8828,"RA_OF_ASC_NODE":44.9819,"ARG_OF_PERICENTER":92.3725,"MEAN_ANOMALY":267.7676,"EPHEMERIS_TYPE":0,"CLASSIFICATION_TYPE":"U","NORAD_CAT_ID":61602,"ELEMENT_SET_NO":999,"REV_AT_EPOCH":6871,"BSTAR":-0.0010775,"MEAN_MOTION_DOT":-3.69e-6,"MEAN_MOTION_DDOT":0},{"OBJECT_NAME":"ONEWEB-0697","OBJECT_ID":"2024-188K","EPOCH":"2026-02-16T23:32:37.380480","MEAN_MOTION":13.11416669,"ECCENTRICITY":0.0002294,"INCLINATION":87.883,"RA_OF_ASC_NODE":44.9796,"ARG_OF_PERICENTER":105.4978,"MEAN_ANOMALY":254.6404,"EPHEMERIS_TYPE":0,"CLASSIFICATION_TYPE":"U","NORAD_CAT_ID":61603,"ELEMENT_SET_NO":999,"REV_AT_EPOCH":6869,"BSTAR":0.0014986,"MEAN_MOTION_DOT":5.44e-6,"MEAN_MOTION_DDOT":0},{"OBJECT_NAME":"ONEWEB-0698","OBJECT_ID":"2024-188L","EPOCH":"2026-02-17T00:50:44.505312","MEAN_MOTION":13.11418902,"ECCENTRICITY":0.0001756,"INCLINATION":87.883,"RA_OF_ASC_NODE":44.9846,"ARG_OF_PERICENTER":126.627,"MEAN_ANOMALY":233.5019,"EPHEMERIS_TYPE":0,"CLASSIFICATION_TYPE":"U","NORAD_CAT_ID":61604,"ELEMENT_SET_NO":999,"REV_AT_EPOCH":6872,"BSTAR":-4.6402e-5,"MEAN_MOTION_DOT":-4.0e-8,"MEAN_MOTION_DDOT":0},{"OBJECT_NAME":"ONEWEB-0699","OBJECT_ID":"2024-188M","EPOCH":"2026-02-17T00:41:29.761152","MEAN_MOTION":13.1036992,"ECCENTRICITY":0.0002146,"INCLINATION":87.8756,"RA_OF_ASC_NODE":60.2001,"ARG_OF_PERICENTER":106.3201,"MEAN_ANOMALY":253.8162,"EPHEMERIS_TYPE":0,"CLASSIFICATION_TYPE":"U","NORAD_CAT_ID":61605,"ELEMENT_SET_NO":999,"REV_AT_EPOCH":6757,"BSTAR":0.0012612,"MEAN_MOTION_DOT":4.53e-6,"MEAN_MOTION_DDOT":0},{"OBJECT_NAME":"ONEWEB-0700","OBJECT_ID":"2024-188N","EPOCH":"2026-02-17T00:43:52.687488","MEAN_MOTION":13.10369708,"ECCENTRICITY":0.0002456,"INCLINATION":87.8771,"RA_OF_ASC_NODE":60.0917,"ARG_OF_PERICENTER":98.4595,"MEAN_ANOMALY":261.6811,"EPHEMERIS_TYPE":0,"CLASSIFICATION_TYPE":"U","NORAD_CAT_ID":61606,"ELEMENT_SET_NO":999,"REV_AT_EPOCH":6756,"BSTAR":0.0011379,"MEAN_MOTION_DOT":4.1e-6,"MEAN_MOTION_DDOT":0},{"OBJECT_NAME":"ONEWEB-0701","OBJECT_ID":"2024-188P","EPOCH":"2026-02-17T01:07:45.193440","MEAN_MOTION":13.10369777,"ECCENTRICITY":0.0002338,"INCLINATION":87.8756,"RA_OF_ASC_NODE":60.1959,"ARG_OF_PERICENTER":111.1606,"MEAN_ANOMALY":248.9772,"EPHEMERIS_TYPE":0,"CLASSIFICATION_TYPE":"U","NORAD_CAT_ID":61607,"ELEMENT_SET_NO":999,"REV_AT_EPOCH":6757,"BSTAR":-0.001027,"MEAN_MOTION_DOT":-3.46e-6,"MEAN_MOTION_DDOT":0},{"OBJECT_NAME":"ONEWEB-0702","OBJECT_ID":"2024-188Q","EPOCH":"2026-02-17T00:06:46.866240","MEAN_MOTION":13.11414392,"ECCENTRICITY":0.0002664,"INCLINATION":87.8839,"RA_OF_ASC_NODE":44.8759,"ARG_OF_PERICENTER":105.7187,"MEAN_ANOMALY":254.4235,"EPHEMERIS_TYPE":0,"CLASSIFICATION_TYPE":"U","NORAD_CAT_ID":61608,"ELEMENT_SET_NO":999,"REV_AT_EPOCH":6873,"BSTAR":-0.00096831,"MEAN_MOTION_DOT":-3.3e-6,"MEAN_MOTION_DDOT":0},{"OBJECT_NAME":"ONEWEB-0704","OBJECT_ID":"2024-188R","EPOCH":"2026-02-17T00:51:04.034304","MEAN_MOTION":13.10370276,"ECCENTRICITY":0.0002673,"INCLINATION":87.877,"RA_OF_ASC_NODE":60.1718,"ARG_OF_PERICENTER":103.0023,"MEAN_ANOMALY":257.1403,"EPHEMERIS_TYPE":0,"CLASSIFICATION_TYPE":"U","NORAD_CAT_ID":61609,"ELEMENT_SET_NO":999,"REV_AT_EPOCH":6755,"BSTAR":0.00056154,"MEAN_MOTION_DOT":2.09e-6,"MEAN_MOTION_DDOT":0},{"OBJECT_NAME":"ONEWEB-0705","OBJECT_ID":"2024-188S","EPOCH":"2026-02-17T00:58:12.744192","MEAN_MOTION":13.10369115,"ECCENTRICITY":0.0002997,"INCLINATION":87.8757,"RA_OF_ASC_NODE":60.1865,"ARG_OF_PERICENTER":85.1897,"MEAN_ANOMALY":274.9572,"EPHEMERIS_TYPE":0,"CLASSIFICATION_TYPE":"U","NORAD_CAT_ID":61610,"ELEMENT_SET_NO":999,"REV_AT_EPOCH":5972,"BSTAR":-0.00027041,"MEAN_MOTION_DOT":-8.2e-7,"MEAN_MOTION_DDOT":0}]
